[{"OBJECT_NAME":"GALAXY 19 (G-19)","OBJECT_ID":"2008-045A","EPOCH":"2022-08-18T20:05:07.859328","MEAN_MOTION":1.00271726,"ECCENTRICITY":0.0002905,"INCLINATION":0.0553,"RA_OF_ASC_NODE":279.1558,"ARG_OF_PERICENTER":234.4593,"MEAN_ANOMALY":17.8284,"EPHEMERIS_TYPE":0,"CLASSIFICATION_TYPE":"U","NORAD_CAT_ID":33376,"ELEMENT_SET_NO":999,"REV_AT_EPOCH":5088,"BSTAR":0,"MEAN_MOTION_DOT":-1.46e-6,"MEAN_MOTION_DDOT":0},{"OBJECT_NAME":"FM-5","OBJECT_ID":"2009-034A","EPOCH":"2022-08-18T09:59:42.677952","MEAN_MOTION":1.00268249,"ECCENTRICITY":4.09e-5,"INCLINATION":0.0237,"RA_OF_ASC_NODE":100.2257,"ARG_OF_PERICENTER":202.482,"MEAN_ANOMALY":87.815,"EPHEMERIS_TYPE":0,"CLASSIFICATION_TYPE":"U","NORAD_CAT_ID":35493,"ELEMENT_SET_NO":999,"REV_AT_EPOCH":4795,"BSTAR":0,"MEAN_MOTION_DOT":-2.07e-6,"MEAN_MOTION_DDOT":0},{"OBJECT_NAME":"INTELSAT 14 (IS-14)","OBJECT_ID":"2009-064A","EPOCH":"2022-08-18T20:20:04.419168","MEAN_MOTION":1.00270064,"ECCENTRICITY":0.000247,"INCLINATION":0.0109,"RA_OF_ASC_NODE":189.6558,"ARG_OF_PERICENTER":333.5237,"MEAN_ANOMALY":64.018,"EPHEMERIS_TYPE":0,"CLASSIFICATION_TYPE":"U","NORAD_CAT_ID":36097,"ELEMENT_SET_NO":999,"REV_AT_EPOCH":4658,"BSTAR":0,"MEAN_MOTION_DOT":-2.8e-6,"MEAN_MOTION_DDOT":0},{"OBJECT_NAME":"INTELSAT 15 (IS-15)","OBJECT_ID":"2009-067A","EPOCH":"2022-08-18T20:38:01.816800","MEAN_MOTION":1.00272102,"ECCENTRICITY":0.0002208,"INCLINATION":0.013,"RA_OF_ASC_NODE":78.7657,"ARG_OF_PERICENTER":70.5067,"MEAN_ANOMALY":212.5737,"EPHEMERIS_TYPE":0,"CLASSIFICATION_TYPE":"U","NORAD_CAT_ID":36106,"ELEMENT_SET_NO":999,"REV_AT_EPOCH":2720,"BSTAR":0,"MEAN_MOTION_DOT":-1.92e-6,"MEAN_MOTION_DDOT":0},{"OBJECT_NAME":"DIRECTV 12","OBJECT_ID":"2009-075A","EPOCH":"2022-08-18T14:37:42.805344","MEAN_MOTION":1.00272075,"ECCENTRICITY":2.73e-5,"INCLINATION":0.039,"RA_OF_ASC_NODE":281.2948,"ARG_OF_PERICENTER":304.9305,"MEAN_ANOMALY":217.4237,"EPHEMERIS_TYPE":0,"CLASSIFICATION_TYPE":"U","NORAD_CAT_ID":36131,"ELEMENT_SET_NO":999,"REV_AT_EPOCH":3253,"BSTAR":0,"MEAN_MOTION_DOT":-1.1e-6,"MEAN_MOTION_DDOT":0},{"OBJECT_NAME":"INTELSAT 16 (IS-16)","OBJECT_ID":"2010-006A","EPOCH":"2022-08-18T22:38:34.447200","MEAN_MOTION":1.00271467,"ECCENTRICITY":0.0002166,"INCLINATION":0.0154,"RA_OF_ASC_NODE":90.4625,"ARG_OF_PERICENTER":66.2238,"MEAN_ANOMALY":74.0147,"EPHEMERIS_TYPE":0,"CLASSIFICATION_TYPE":"U","NORAD_CAT_ID":36397,"ELEMENT_SET_NO":999,"REV_AT_EPOCH":4563,"BSTAR":0,"MEAN_MOTION_DOT":-2.51e-6,"MEAN_MOTION_DDOT":0},{"OBJECT_NAME":"XM-5","OBJECT_ID":"2010-053A","EPOCH":"2022-08-18T16:33:13.415904","MEAN_MOTION":1.00272021,"ECCENTRICITY":7.12e-5,"INCLINATION":0.018,"RA_OF_ASC_NODE":110.9237,"ARG_OF_PERICENTER":233.7881,"MEAN_ANOMALY":115.406,"EPHEMERIS_TYPE":0,"CLASSIFICATION_TYPE":"U","NORAD_CAT_ID":37185,"ELEMENT_SET_NO":999,"REV_AT_EPOCH":4346,"BSTAR":0,"MEAN_MOTION_DOT":-3.0e-7,"MEAN_MOTION_DDOT":0},{"OBJECT_NAME":"INTELSAT 17 (IS-17)","OBJECT_ID":"2010-065B","EPOCH":"2022-08-18T10:31:57.689760","MEAN_MOTION":1.00273392,"ECCENTRICITY":0.0002491,"INCLINATION":0.0345,"RA_OF_ASC_NODE":224.042,"ARG_OF_PERICENTER":286.516,"MEAN_ANOMALY":40.205,"EPHEMERIS_TYPE":0,"CLASSIFICATION_TYPE":"U","NORAD_CAT_ID":37238,"ELEMENT_SET_NO":999,"REV_AT_EPOCH":4289,"BSTAR":0,"MEAN_MOTION_DOT":-9.0e-8,"MEAN_MOTION_DDOT":0},{"OBJECT_NAME":"INTELSAT NEW DAWN","OBJECT_ID":"2011-016A","EPOCH":"2022-08-18T21:59:43.141056","MEAN_MOTION":1.00274317,"ECCENTRICITY":9.17e-5,"INCLINATION":0.0249,"RA_OF_ASC_NODE":213.7385,"ARG_OF_PERICENTER":285.3032,"MEAN_ANOMALY":190.9207,"EPHEMERIS_TYPE":0,"CLASSIFICATION_TYPE":"U","NORAD_CAT_ID":37392,"ELEMENT_SET_NO":999,"REV_AT_EPOCH":3926,"BSTAR":0,"MEAN_MOTION_DOT":1.49e-6,"MEAN_MOTION_DDOT":0},{"OBJECT_NAME":"INTELSAT 18 (IS-18)","OBJECT_ID":"2011-056A","EPOCH":"2022-08-18T19:41:16.378080","MEAN_MOTION":1.00272366,"ECCENTRICITY":0.0002209,"INCLINATION":0.0242,"RA_OF_ASC_NODE":19.7347,"ARG_OF_PERICENTER":138.4732,"MEAN_ANOMALY":284.244,"EPHEMERIS_TYPE":0,"CLASSIFICATION_TYPE":"U","NORAD_CAT_ID":37834,"ELEMENT_SET_NO":999,"REV_AT_EPOCH":3982,"BSTAR":0,"MEAN_MOTION_DOT":4.6e-7,"MEAN_MOTION_DDOT":0},{"OBJECT_NAME":"INTELSAT 22 (IS-22)","OBJECT_ID":"2012-011A","EPOCH":"2022-08-18T20:53:36.026304","MEAN_MOTION":1.00272045,"ECCENTRICITY":0.0002862,"INCLINATION":0.0211,"RA_OF_ASC_NODE":98.3379,"ARG_OF_PERICENTER":62.6219,"MEAN_ANOMALY":191.7361,"EPHEMERIS_TYPE":0,"CLASSIFICATION_TYPE":"U","NORAD_CAT_ID":38098,"ELEMENT_SET_NO":999,"REV_AT_EPOCH":3779,"BSTAR":0,"MEAN_MOTION_DOT":-6.6e-7,"MEAN_MOTION_DDOT":0},{"OBJECT_NAME":"INTELSAT 19 (IS-19)","OBJECT_ID":"2012-030A","EPOCH":"2022-08-18T21:20:20.793120","MEAN_MOTION":1.00271796,"ECCENTRICITY":0.0003106,"INCLINATION":0.0119,"RA_OF_ASC_NODE":128.4482,"ARG_OF_PERICENTER":25.7965,"MEAN_ANOMALY":299.0537,"EPHEMERIS_TYPE":0,"CLASSIFICATION_TYPE":"U","NORAD_CAT_ID":38356,"ELEMENT_SET_NO":999,"REV_AT_EPOCH":3641,"BSTAR":0,"MEAN_MOTION_DOT":-6.3e-7,"MEAN_MOTION_DDOT":0},{"OBJECT_NAME":"INTELSAT 20 (IS-20)","OBJECT_ID":"2012-043A","EPOCH":"2022-08-18T16:14:59.999712","MEAN_MOTION":1.00271927,"ECCENTRICITY":0.0001846,"INCLINATION":0.0095,"RA_OF_ASC_NODE":153.6122,"ARG_OF_PERICENTER":38.1003,"MEAN_ANOMALY":87.5222,"EPHEMERIS_TYPE":0,"CLASSIFICATION_TYPE":"U","NORAD_CAT_ID":38740,"ELEMENT_SET_NO":999,"REV_AT_EPOCH":3672,"BSTAR":0,"MEAN_MOTION_DOT":-3.2e-7,"MEAN_MOTION_DDOT":0},{"OBJECT_NAME":"INTELSAT 21 (IS-21)","OBJECT_ID":"2012-045A","EPOCH":"2022-08-18T20:16:18.395040","MEAN_MOTION":1.00273018,"ECCENTRICITY":0.00022,"INCLINATION":0.0098,"RA_OF_ASC_NODE":116.0452,"ARG_OF_PERICENTER":44.6081,"MEAN_ANOMALY":52.5894,"EPHEMERIS_TYPE":0,"CLASSIFICATION_TYPE":"U","NORAD_CAT_ID":38749,"ELEMENT_SET_NO":999,"REV_AT_EPOCH":3651,"BSTAR":0,"MEAN_MOTION_DOT":-2.91e-6,"MEAN_MOTION_DDOT":0},{"OBJECT_NAME":"INTELSAT 23 (IS-23)","OBJECT_ID":"2012-057A","EPOCH":"2022-08-17T08:33:45.302976","MEAN_MOTION":1.00259516,"ECCENTRICITY":8.74e-5,"INCLINATION":0.0086,"RA_OF_ASC_NODE":148.2869,"ARG_OF_PERICENTER":7.8486,"MEAN_ANOMALY":245.0115,"EPHEMERIS_TYPE":0,"CLASSIFICATION_TYPE":"U","NORAD_CAT_ID":38867,"ELEMENT_SET_NO":999,"REV_AT_EPOCH":3590,"BSTAR":0,"MEAN_MOTION_DOT":-2.95e-6,"MEAN_MOTION_DDOT":0},{"OBJECT_NAME":"FM-6","OBJECT_ID":"2013-058A","EPOCH":"2022-08-17T14:00:29.868192","MEAN_MOTION":1.00270341,"ECCENTRICITY":4.77e-5,"INCLINATION":0.0509,"RA_OF_ASC_NODE":268.7238,"ARG_OF_PERICENTER":120.3032,"MEAN_ANOMALY":30.8582,"EPHEMERIS_TYPE":0,"CLASSIFICATION_TYPE":"U","NORAD_CAT_ID":39360,"ELEMENT_SET_NO":999,"REV_AT_EPOCH":3202,"BSTAR":0,"MEAN_MOTION_DOT":-2.6e-7,"MEAN_MOTION_DDOT":0},{"OBJECT_NAME":"INTELSAT 30 (IS-30)","OBJECT_ID":"2014-062A","EPOCH":"2022-08-19T02:47:54.686688","MEAN_MOTION":1.002666,"ECCENTRICITY":0.0001527,"INCLINATION":0.0094,"RA_OF_ASC_NODE":129.7535,"ARG_OF_PERICENTER":314.7863,"MEAN_ANOMALY":189.8163,"EPHEMERIS_TYPE":0,"CLASSIFICATION_TYPE":"U","NORAD_CAT_ID":40271,"ELEMENT_SET_NO":999,"REV_AT_EPOCH":2874,"BSTAR":0,"MEAN_MOTION_DOT":-1.56e-6,"MEAN_MOTION_DDOT":0}]