GALAXY 19 (G-19)        
1 33376U 08045A   22230.83689652 -.00000146  00000+0  00000+0 0  9995
2 33376   0.0553 279.1558 0002905 234.4593  17.8284  1.00271726 50887
FM-5                    
1 35493U 09034A   22230.41646618 -.00000207  00000+0  00000+0 0  9993
2 35493   0.0237 100.2257 0000409 202.4820  87.8150  1.00268249 47952
INTELSAT 14 (IS-14)     
1 36097U 09064A   22230.84727337 -.00000280  00000+0  00000+0 0  9993
2 36097   0.0109 189.6558 0002470 333.5237  64.0180  1.00270064 46580
INTELSAT 15 (IS-15)     
1 36106U 09067A   22230.85974325 -.00000192  00000+0  00000+0 0  9991
2 36106   0.0130  78.7657 0002208  70.5067 212.5737  1.00272102 27202
DIRECTV 12              
1 36131U 09075A   22230.60952321 -.00000110  00000+0  00000+0 0  9993
2 36131   0.0390 281.2948 0000273 304.9305 217.4237  1.00272075 32531
INTELSAT 16 (IS-16)     
1 36397U 10006A   22230.94345425 -.00000251  00000+0  00000+0 0  9997
2 36397   0.0154  90.4625 0002166  66.2238  74.0147  1.00271467 45637
XM-5                    
1 37185U 10053A   22230.68973861 -.00000030  00000+0  00000+0 0  9992
2 37185   0.0180 110.9237 0000712 233.7881 115.4060  1.00272021 43469
INTELSAT 17 (IS-17)     
1 37238U 10065B   22230.43886215 -.00000009  00000+0  00000+0 0  9999
2 37238   0.0345 224.0420 0002491 286.5160  40.2050  1.00273392 42896
INTELSAT NEW DAWN       
1 37392U 11016A   22230.91647154  .00000149  00000+0  00000+0 0  9991
2 37392   0.0249 213.7385 0000917 285.3032 190.9207  1.00274317 39263
INTELSAT 18 (IS-18)     
1 37834U 11056A   22230.82032845  .00000046  00000+0  00000+0 0  9997
2 37834   0.0242  19.7347 0002209 138.4732 284.2440  1.00272366 39820
INTELSAT 22 (IS-22)     
1 38098U 12011A   22230.87055586 -.00000066  00000+0  00000+0 0  9997
2 38098   0.0211  98.3379 0002862  62.6219 191.7361  1.00272045 37792
INTELSAT 19 (IS-19)     
1 38356U 12030A   22230.88912955 -.00000063  00000+0  00000+0 0  9995
2 38356   0.0119 128.4482 0003106  25.7965 299.0537  1.00271796 36413
INTELSAT 20 (IS-20)     
1 38740U 12043A   22230.67708333 -.00000032  00000+0  00000+0 0  9992
2 38740   0.0095 153.6122 0001846  38.1003  87.5222  1.00271927 36725
INTELSAT 21 (IS-21)     
1 38749U 12045A   22230.84465735 -.00000291  00000+0  00000+0 0  9995
2 38749   0.0098 116.0452 0002200  44.6081  52.5894  1.00273018 36516
INTELSAT 23 (IS-23)     
1 38867U 12057A   22229.35677434 -.00000295  00000+0  00000+0 0  9998
2 38867   0.0086 148.2869 0000874   7.8486 245.0115  1.00259516 35902
FM-6                    
1 39360U 13058A   22229.58367903 -.00000026  00000+0  00000+0 0  9993
2 39360   0.0509 268.7238 0000477 120.3032  30.8582  1.00270341 32023
INTELSAT 30 (IS-30)     
1 40271U 14062A   22231.11660517 -.00000156  00000+0  00000+0 0  9995
2 40271   0.0094 129.7535 0001527 314.7863 189.8163  1.00266600 28746
